start=new Date('2022-09-18T00:00:00.000Z').valueOf();
sats=[{"TLE_LINE2":"2 53144  53.2178 109.8551 0001715  52.4049  91.3228 15.08823807  1303","COUNTRY_CODE":"US","SITE":"AFETR","DECAY_DATE":null,"PERIAPSIS":"538.608","RCS_SIZE":"LARGE","EPOCH":"2022-09-17T22:00:00.999936","MEAN_ANOMALY":"91.3228","INCLINATION":"53.2178","APOAPSIS":"540.981","SEMIMAJOR_AXIS":"6917.930","CLASSIFICATION_TYPE":"U","REV_AT_EPOCH":"130","LAUNCH_DATE":"2022-07-17","MEAN_MOTION_DDOT":"0.0000000000000","GP_ID":"212872976","MEAN_MOTION":"15.08823807","RA_OF_ASC_NODE":"109.8551","CENTER_NAME":"EARTH","NORAD_CAT_ID":"53144","OBJECT_TYPE":"PAYLOAD","BSTAR":"0.00049596000000","ELEMENT_SET_NO":"999","MEAN_ELEMENT_THEORY":"SGP4","FILE":"3576621","TIME_SYSTEM":"UTC","PERIOD":"95.439","EPHEMERIS_TYPE":"0","ECCENTRICITY":"0.00017150","TLE_LINE1":"1 53144U 22083N   22260.91667824  .00007611  00000-0  49596-3 0  9998","REF_FRAME":"TEME","OBJECT_ID":"2022-083N","ARG_OF_PERICENTER":"52.4049","OBJECT_NAME":"STARLINK-4100","MEAN_MOTION_DOT":"0.00007611"},{"EPOCH":"2022-09-17T22:00:00.999936","INCLINATION":"53.2167","MEAN_ANOMALY":"196.3281","RCS_SIZE":"LARGE","COUNTRY_CODE":"US","SITE":"AFETR","DECAY_DATE":null,"PERIAPSIS":"538.509","TLE_LINE2":"2 53145  53.2167 109.8480 0001843  47.4266 196.3281 15.08827287  1301","GP_ID":"212873260","MEAN_MOTION":"15.08827287","REV_AT_EPOCH":"130","LAUNCH_DATE":"2022-07-17","MEAN_MOTION_DDOT":"0.0000000000000","SEMIMAJOR_AXIS":"6917.919","CLASSIFICATION_TYPE":"U","APOAPSIS":"541.059","PERIOD":"95.438","EPHEMERIS_TYPE":"0","FILE":"3576621","MEAN_ELEMENT_THEORY":"SGP4","TIME_SYSTEM":"UTC","OBJECT_TYPE":"PAYLOAD","ELEMENT_SET_NO":"999","BSTAR":"0.00084910000000","RA_OF_ASC_NODE":"109.8480","CENTER_NAME":"EARTH","NORAD_CAT_ID":"53145","ARG_OF_PERICENTER":"47.4266","OBJECT_NAME":"STARLINK-4106","MEAN_MOTION_DOT":"0.00013247","TLE_LINE1":"1 53145U 22083P   22260.91667824  .00013247  00000-0  84910-3 0  9990","REF_FRAME":"TEME","OBJECT_ID":"2022-083P","ECCENTRICITY":"0.00018430"},{"MEAN_ELEMENT_THEORY":"SGP4","FILE":"3576621","TIME_SYSTEM":"UTC","PERIOD":"95.439","EPHEMERIS_TYPE":"0","RA_OF_ASC_NODE":"109.8516","CENTER_NAME":"EARTH","NORAD_CAT_ID":"53146","OBJECT_TYPE":"PAYLOAD","BSTAR":"0.00057295000000","ELEMENT_SET_NO":"999","ARG_OF_PERICENTER":"59.9643","OBJECT_NAME":"STARLINK-4099","MEAN_MOTION_DOT":"0.00008838","ECCENTRICITY":"0.00017560","TLE_LINE1":"1 53146U 22083Q   22260.91667824  .00008838  00000-0  57295-3 0  9997","REF_FRAME":"TEME","OBJECT_ID":"2022-083Q","RCS_SIZE":"LARGE","EPOCH":"2022-09-17T22:00:00.999936","MEAN_ANOMALY":"103.7569","INCLINATION":"53.2174","TLE_LINE2":"2 53146  53.2174 109.8516 0001756  59.9643 103.7569 15.08823056  1301","COUNTRY_CODE":"US","DECAY_DATE":null,"SITE":"AFETR","PERIAPSIS":"538.582","REV_AT_EPOCH":"130","LAUNCH_DATE":"2022-07-17","MEAN_MOTION_DDOT":"0.0000000000000","GP_ID":"212872822","MEAN_MOTION":"15.08823056","APOAPSIS":"541.012","SEMIMAJOR_AXIS":"6917.932","CLASSIFICATION_TYPE":"U"},{"PERIAPSIS":"538.549","SITE":"AFETR","DECAY_DATE":null,"COUNTRY_CODE":"US","TLE_LINE2":"2 53147  53.2165 109.8480 0001766  50.1755 213.6316 15.08831652  1302","INCLINATION":"53.2165","MEAN_ANOMALY":"213.6316","EPOCH":"2022-09-17T22:00:00.999936","RCS_SIZE":"LARGE","CLASSIFICATION_TYPE":"U","SEMIMAJOR_AXIS":"6917.906","APOAPSIS":"540.993","MEAN_MOTION":"15.08831652","GP_ID":"212873133","LAUNCH_DATE":"2022-07-17","REV_AT_EPOCH":"130","MEAN_MOTION_DDOT":"0.0000000000000","BSTAR":"-0.00112450000000","ELEMENT_SET_NO":"999","OBJECT_TYPE":"PAYLOAD","NORAD_CAT_ID":"53147","CENTER_NAME":"EARTH","RA_OF_ASC_NODE":"109.8480","EPHEMERIS_TYPE":"0","PERIOD":"95.438","TIME_SYSTEM":"UTC","FILE":"3576621","MEAN_ELEMENT_THEORY":"SGP4","OBJECT_ID":"2022-083R","REF_FRAME":"TEME","TLE_LINE1":"1 53147U 22083R   22260.91667824 -.00018136  00000-0 -11245-2 0  9996","ECCENTRICITY":"0.00017660","MEAN_MOTION_DOT":"-0.00018136","ARG_OF_PERICENTER":"50.1755","OBJECT_NAME":"STARLINK-4094"},{"MEAN_MOTION":"15.08826138","GP_ID":"212872560","MEAN_MOTION_DDOT":"0.0000000000000","LAUNCH_DATE":"2022-07-17","REV_AT_EPOCH":"130","SEMIMAJOR_AXIS":"6917.923","CLASSIFICATION_TYPE":"U","APOAPSIS":"540.960","INCLINATION":"53.2172","MEAN_ANOMALY":"179.2032","EPOCH":"2022-09-17T22:00:00.999936","RCS_SIZE":"LARGE","SITE":"AFETR","DECAY_DATE":null,"PERIAPSIS":"538.616","COUNTRY_CODE":"US","TLE_LINE2":"2 53148  53.2172 109.8485 0001694  44.5375 179.2032 15.08826138  1306","MEAN_MOTION_DOT":"0.00012364","OBJECT_NAME":"STARLINK-4066","ARG_OF_PERICENTER":"44.5375","OBJECT_ID":"2022-083S","TLE_LINE1":"1 53148U 22083S   22260.91667824  .00012364  00000-0  79383-3 0  9990","REF_FRAME":"TEME","ECCENTRICITY":"0.00016940","EPHEMERIS_TYPE":"0","PERIOD":"95.438","FILE":"3576621","MEAN_ELEMENT_THEORY":"SGP4","TIME_SYSTEM":"UTC","ELEMENT_SET_NO":"999","BSTAR":"0.00079383000000","OBJECT_TYPE":"PAYLOAD","CENTER_NAME":"EARTH","NORAD_CAT_ID":"53148","RA_OF_ASC_NODE":"109.8485"},{"ELEMENT_SET_NO":"999","BSTAR":"-0.02810600000000","OBJECT_TYPE":"PAYLOAD","NORAD_CAT_ID":"53149","CENTER_NAME":"EARTH","RA_OF_ASC_NODE":"101.3524","EPHEMERIS_TYPE":"0","PERIOD":"93.464","TIME_SYSTEM":"UTC","MEAN_ELEMENT_THEORY":"SGP4","FILE":"3576621","OBJECT_ID":"2022-083T","REF_FRAME":"TEME","TLE_LINE1":"1 53149U 22083T   22260.91667824 -.01070374  00000-0 -28106-1 0  9994","ECCENTRICITY":"0.00015580","MEAN_MOTION_DOT":"-0.01070374","ARG_OF_PERICENTER":"51.7656","OBJECT_NAME":"STARLINK-4021","PERIAPSIS":"442.991","SITE":"AFETR","DECAY_DATE":null,"COUNTRY_CODE":"US","TLE_LINE2":"2 53149  53.2175 101.3524 0001558  51.7656  84.4734 15.40696794  1307","MEAN_ANOMALY":"84.4734","INCLINATION":"53.2175","EPOCH":"2022-09-17T22:00:00.999936","RCS_SIZE":"LARGE","CLASSIFICATION_TYPE":"U","SEMIMAJOR_AXIS":"6822.189","APOAPSIS":"445.117","MEAN_MOTION":"15.40696794","GP_ID":"212873470","LAUNCH_DATE":"2022-07-17","MEAN_MOTION_DDOT":"0.0000000000000","REV_AT_EPOCH":"130"},{"ARG_OF_PERICENTER":"40.0618","OBJECT_NAME":"STARLINK-4038","MEAN_MOTION_DOT":"-0.01071601","ECCENTRICITY":"0.00016670","TLE_LINE1":"1 53150U 22083U   22260.91667824 -.01071601  00000-0 -31309-1 0  9999","REF_FRAME":"TEME","OBJECT_ID":"2022-083U","FILE":"3576621","MEAN_ELEMENT_THEORY":"SGP4","TIME_SYSTEM":"UTC","PERIOD":"93.661","EPHEMERIS_TYPE":"0","RA_OF_ASC_NODE":"101.2437","CENTER_NAME":"EARTH","NORAD_CAT_ID":"53150","OBJECT_TYPE":"PAYLOAD","ELEMENT_SET_NO":"999","BSTAR":"-0.03130900000000","MEAN_MOTION_DDOT":"0.0000000000000","LAUNCH_DATE":"2022-07-17","REV_AT_EPOCH":"130","GP_ID":"212872407","MEAN_MOTION":"15.37463094","APOAPSIS":"454.755","SEMIMAJOR_AXIS":"6831.751","CLASSIFICATION_TYPE":"U","RCS_SIZE":"LARGE","EPOCH":"2022-09-17T22:00:00.999936","MEAN_ANOMALY":"30.7793","INCLINATION":"53.2174","TLE_LINE2":"2 53150  53.2174 101.2437 0001667  40.0618  30.7793 15.37463094  1300","COUNTRY_CODE":"US","SITE":"AFETR","DECAY_DATE":null,"PERIAPSIS":"452.477"},{"RA_OF_ASC_NODE":"101.2750","CENTER_NAME":"EARTH","NORAD_CAT_ID":"53151","OBJECT_TYPE":"PAYLOAD","BSTAR":"-0.03041000000000","ELEMENT_SET_NO":"999","MEAN_ELEMENT_THEORY":"SGP4","FILE":"3576621","TIME_SYSTEM":"UTC","PERIOD":"93.607","EPHEMERIS_TYPE":"0","ECCENTRICITY":"0.00015150","TLE_LINE1":"1 53151U 22083V   22260.91667824 -.01071427  00000-0 -30410-1 0  9998","REF_FRAME":"TEME","OBJECT_ID":"2022-083V","ARG_OF_PERICENTER":"49.1477","OBJECT_NAME":"STARLINK-4040","MEAN_MOTION_DOT":"-0.01071427","TLE_LINE2":"2 53151  53.2174 101.2750 0001515  49.1477  41.0029 15.38348655  1307","COUNTRY_CODE":"US","SITE":"AFETR","DECAY_DATE":null,"PERIAPSIS":"449.960","RCS_SIZE":"LARGE","EPOCH":"2022-09-17T22:00:00.999936","INCLINATION":"53.2174","MEAN_ANOMALY":"41.0029","APOAPSIS":"452.029","SEMIMAJOR_AXIS":"6829.129","CLASSIFICATION_TYPE":"U","LAUNCH_DATE":"2022-07-17","MEAN_MOTION_DDOT":"0.0000000000000","REV_AT_EPOCH":"130","GP_ID":"212873344","MEAN_MOTION":"15.38348655"},{"OBJECT_ID":"2022-083W","TLE_LINE1":"1 53152U 22083W   22260.91667824 -.01071602  00000-0 -31010-1 0  9991","REF_FRAME":"TEME","ECCENTRICITY":"0.00014430","MEAN_MOTION_DOT":"-0.01071602","ARG_OF_PERICENTER":"52.0051","OBJECT_NAME":"STARLINK-4045","ELEMENT_SET_NO":"999","BSTAR":"-0.03101000000000","OBJECT_TYPE":"PAYLOAD","CENTER_NAME":"EARTH","NORAD_CAT_ID":"53152","RA_OF_ASC_NODE":"101.2542","EPHEMERIS_TYPE":"0","PERIOD":"93.643","MEAN_ELEMENT_THEORY":"SGP4","FILE":"3576621","TIME_SYSTEM":"UTC","SEMIMAJOR_AXIS":"6830.877","CLASSIFICATION_TYPE":"U","APOAPSIS":"453.727","MEAN_MOTION":"15.37758338","GP_ID":"212872977","LAUNCH_DATE":"2022-07-17","MEAN_MOTION_DDOT":"0.0000000000000","REV_AT_EPOCH":"130","SITE":"AFETR","DECAY_DATE":null,"PERIAPSIS":"451.756","COUNTRY_CODE":"US","TLE_LINE2":"2 53152  53.2174 101.2542 0001443  52.0051  25.4102 15.37758338  1308","INCLINATION":"53.2174","MEAN_ANOMALY":"25.4102","EPOCH":"2022-09-17T22:00:00.999936","RCS_SIZE":"LARGE"},{"EPOCH":"2022-09-17T22:00:00.999936","MEAN_ANOMALY":"42.5982","INCLINATION":"53.2174","RCS_SIZE":"LARGE","COUNTRY_CODE":"US","DECAY_DATE":null,"SITE":"AFETR","PERIAPSIS":"449.127","TLE_LINE2":"2 53153  53.2174 101.2852 0001455  53.7136  42.5982 15.38643833  1308","GP_ID":"212873261","MEAN_MOTION":"15.38643833","LAUNCH_DATE":"2022-07-17","MEAN_MOTION_DDOT":"0.0000000000000","REV_AT_EPOCH":"130","SEMIMAJOR_AXIS":"6828.256","CLASSIFICATION_TYPE":"U","APOAPSIS":"451.114","PERIOD":"93.589","EPHEMERIS_TYPE":"0","FILE":"3576621","MEAN_ELEMENT_THEORY":"SGP4","TIME_SYSTEM":"UTC","OBJECT_TYPE":"PAYLOAD","ELEMENT_SET_NO":"999","BSTAR":"-0.03011400000000","RA_OF_ASC_NODE":"101.2852","CENTER_NAME":"EARTH","NORAD_CAT_ID":"53153","OBJECT_NAME":"STARLINK-4098","ARG_OF_PERICENTER":"53.7136","MEAN_MOTION_DOT":"-0.01071335","TLE_LINE1":"1 53153U 22083X   22260.91667824 -.01071335  00000-0 -30114-1 0  9999","REF_FRAME":"TEME","OBJECT_ID":"2022-083X","ECCENTRICITY":"0.00014550"}];
